THURAYA-3               
1 32404U 08001A   26073.94455000 -.00000297  00000+0  00000+0 0  9994
2 32404   5.8293  35.6123 0002281 326.2900 249.0754  1.00268780 66541
THOR 5                  
1 32487U 08006A   26074.28142477 -.00000010  00000+0  00000+0 0  9992
2 32487   0.0459 252.4813 0002785 119.7965 261.1598  1.00272801 66374
AMC-14                  
1 32708U 08011A   26071.97822654  .00000106  00000+0  00000+0 0  9994
2 32708  23.8935  21.6783 0048008 356.2650 186.5466  1.00325880 67204
DIRECTV 11              
1 32729U 08013A   26074.17154766 -.00000127  00000+0  00000+0 0  9990
2 32729   0.0056  63.8090 0000247 327.8600 103.6676  1.00272033 44657
ICO G1                  
1 32763U 08016A   26074.29021027 -.00000169  00000+0  00000+0 0  9993
2 32763   5.5146  36.3525 0002930 295.6993 212.4650  1.00272888 65608
VINASAT-1               
1 32767U 08018A   26074.23644457 -.00000329  00000+0  00000+0 0  9999
2 32767   0.0363 279.3391 0002479 117.4851 353.0736  1.00271673 65647
STAR ONE C2             
1 32768U 08018B   26074.26877137 -.00000277  00000+0  00000+0 0  9998
2 32768   0.9990  83.3275 0002691 271.8004 209.4860  1.00274460 65715
AMOS-3                  
1 32794U 08022A   26074.20949112 -.00000036  00000+0  00000+0 0  9992
2 32794   0.2111  88.3424 0001367 187.1530 328.6001  1.00271223 81392
GALAXY 18 (G-18)        
1 32951U 08024A   26073.97202346  .00000024  00000+0  00000+0 0  9999
2 32951   0.0195 108.6449 0003055 259.1238  31.7351  1.00272991 44900
ZHONGXING-9             
1 33051U 08028A   26072.80237488 -.00000249  00000+0  00000+0 0  9991
2 33051   0.5233  86.8156 0008374 249.5125 216.3123  1.00270101 65080
SKYNET 5C               
1 33055U 08030A   26074.27804474 -.00000139  00000+0  00000+0 0  9994
2 33055   3.5471  78.1511 0005101 291.8190 245.1964  1.00271939 65013
TURKSAT 3A              
1 33056U 08030B   26074.23308681  .00000145  00000+0  00000+0 0  9996
2 33056   0.0450  83.7470 0004747 297.9352 277.0413  1.00273258 51419
INTELSAT 25 (IS-25)     
1 33153U 08034A   26074.06146382 -.00000224  00000+0  00000+0 0  9996
2 33153   2.4631  81.4725 0003239 251.3174 190.4936  1.00270237 64756
ECHOSTAR 11             
1 33207U 08035A   26074.25984466 -.00000057  00000+0  00000+0 0  9995
2 33207   0.7603  85.3116 0002538 257.4268 173.6655  1.00272090 50277
SUPERBIRD-C2            
1 33274U 08038A   26074.02176866 -.00000306  00000+0  00000+0 0  9991
2 33274   2.1164  82.4612 0001824 358.5200 235.4829  1.00274401104788
INMARSAT 4-F3           
1 33278U 08039A   26073.97696347 -.00000138  00000+0  00000+0 0  9993
2 33278   4.2124  31.2382 0002773 335.2550  59.7942  1.00271334 45601
NIMIQ 4                 
1 33373U 08044A   26074.26539135 -.00000221  00000+0  00000+0 0  9992
2 33373   0.0234 117.0056 0002374 240.8580 188.5320  1.00271114 64041
